#dP2019  9 26  0  0  0.00000000      96 __u+U ITR00 FIT  IAC
## 2072 345600.00000000   900.00000000 58752 0.0000000000000
+  106   C06C07C08C09C10C11C12C13C16C19C20C21C22C23C24C25C26
+        C27C28C29C30C32C33C34C35C36C37E01E02E03E04E05E07E08
+        E09E11E12E13E14E15E18E19E21E24E25E26E27E30E31E33E36
+        G01G02G03G04G05G06G07G08G09G10G11G12G13G14G15G16G17
+        G18G19G20G21G22G23G24G25G26G27G28G29G30G31G32R01R02
+        R03R05R07R08R09R11R12R13R14R15R16R17R18R19R20R21R22
+        R23R24R26R27  0  0  0  0  0  0  0  0  0  0  0  0  0
++         9  9  9  8  9  8  8  8  9  8  8  8  8  8  8  0  8
++         8  8  8  8  8  8  8  9 10  9  5  5  5  5  5  5  5
++         5  5  5  5  6  5  6  5  5  5  5  5  5  5  5  5  5
++         3  3  3  4  4  4  4  4  4  4  4  4  4  3  4  4  4
++         3  4  4  4  4  4  4  3  4  4  4  4  4  3  3  6  5
++         5  5  6  5  6  5  5  6  5  6  6  6  6  6  6  5  5
++         5  6  8  8  0  0  0  0  0  0  0  0  0  0  0  0  0
%c M  cc GPS ccc cccc cccc cccc cccc ccccc ccccc ccccc ccccc
%c cc cc ccc ccc cccc cccc cccc cccc ccccc ccccc ccccc ccccc
%f  0.0000000  0.000000000  0.00000000000  0.000000000000000
%f  0.0000000  0.000000000  0.00000000000  0.000000000000000
%i    0    0    0    0      0      0      0      0         0
%i    0    0    0    0      0      0      0      0         0
/* INFORMATION & ANALYSIS CENTER (IAC)      ULTRA-RAPID DATA
/* S/V CLOCKS ARE ALIGNED TO GNSS TIME                      
/* G:C1WC2W R:C1PC2P E:C1XC5X C:C2IC6I J:C1CC2S             
/* PCV:IGS14_2070 OL/AL:FES2004  NONE     YN ORB:CoN CLK:CoN
*  2019 09 26 12 15  0.00000000
PC06 -19860.944307  22587.075631  29737.815416    392.484061
PC07 -18711.975469  37958.943551   3219.272999   -155.359923
PC08  -6084.548003  25892.727228 -32544.304885     -8.376466
PC09  -3240.468827  24549.100109  34336.181320     -4.396854
PC10  -8746.967133  40371.478350  -9320.128763   -212.431371
PC11  15241.857722  16344.695201 -16613.598962     91.135053
PC12 -14993.770540  10040.605052 -21248.924911   -250.475077
PC13   5644.460456  34495.536092 -23330.637916   -875.433744
PC16 -15414.937244  23202.940668  31630.097480   -882.223044
PC19 -13140.931602  -9364.399159 -22750.166625    203.062251
PC20   3753.056814 -20916.138826 -18061.226338   -103.783241
PC21 -18954.731671  20345.462952   2507.569426    290.548864
PC22 -22702.125311   7791.211968 -14263.455566 999999.999999
PC23  16475.065674    710.784564 -22498.541757   -932.899708
PC24   3381.244014  27444.926232   3694.762285   -893.882372
PC25      0.000000      0.000000      0.000000 999999.999999
PC26  -8398.005703  19444.096772  18158.478139    401.060854
PC27  15232.832605 -10326.160487  20967.267180    196.139021
PC28  26526.188396   2588.745326   8246.694833    190.612523
PC29 -22846.692272 -13103.886245   9226.464052    123.770396
PC30  -5375.639026 -16996.560792  21466.812675    198.753625
PC32  18801.966684 -20462.258643  -2489.587306   -919.650812
PC33  13133.195039   9415.574467  22750.644604   -417.600295
PC34   5666.867334  17085.431066 -21331.884784   -106.775093
PC35 -26618.499289  -1737.474669  -8152.089135 999999.999999
PC36 -14227.561127 -19859.781818  13509.987237   -891.979673
PC37   9115.250562 -18839.305228 -18432.436675   -527.793009
PE01  15463.408116   5806.230054 -24554.787887   -698.013906
PE02 -15491.443551  -5720.188235  24572.971299     81.518797
PE03 -26094.591650  -1255.803071 -13935.507590   -215.115520
PE04  26602.912636 -12365.199365  -3927.733286   -373.209813
PE05 -10268.912681 -14283.014168 -23807.155502   -445.285314
PE07 -11475.222456  18886.424713  19703.755414   -272.732703
PE08 -26465.449038  12632.563978   4088.913628   6286.420375
PE09  11294.125231 -18854.245474 -19816.341547   6304.220680
PE11    314.766080 -19199.013176  22516.647270   5577.018307
PE12  18229.848168  -4543.956106  22874.073323   6179.460774
PE13   -325.643748  19075.819419 -22627.840461    393.386379
PE14 -22535.607820  -8032.418340   8691.897574   -734.245483
PE15 -17927.547719   4870.664125 -23042.312541    893.931142
PE18  18109.746831  16812.204446 -19180.017650   -828.599255
PE19  25033.367027   2666.821128  15570.262452     -3.754994
PE21   6056.094874  24402.464466 -15622.423280   -556.959610
PE24   7031.137456 -28661.506389  -2370.818196   5851.215553
PE25  -6024.564657 -24437.199374  15585.024043   1666.448464
PE26  17398.343061  22276.210542  -8766.167380   4063.196894
PE27  -6963.133809  28661.393293   2532.721393    379.381464
PE30 -15960.247708  16058.079409  19066.319911   4515.816728
PE31  15838.432993 -16094.149371 -19118.716249   -468.894521
PE33  25055.797352  12210.801724   9960.821424   -470.494921
PE36 -17513.091268 -22130.478850   8939.627478    657.268636
PG01  18447.405479   8032.749925  17297.557695   -141.699121
PG02 -14617.881998 -22251.092391   1156.126799   -313.243016
PG03  17675.770704  -4454.319587  19229.694423    -15.182413
PG04   9599.045478  13661.486748 -21068.266780     22.280339
PG05  -8021.661719 -15651.190799 -19983.956868     -1.758094
PG06  -3405.982224 -22762.517495  13272.867286    -70.148369
PG07  12701.855870  -8402.424577 -21467.743479   -114.424332
PG08  24236.004758   5634.800107  -9547.584856     -7.824394
PG09  22967.162380  -8318.664622 -10481.983510    -41.006313
PG10 -10839.472947  23964.559026   2789.273770    -69.421402
PG11  23577.102182   6306.147134   9590.666651   -495.959589
PG12 -16071.171961   -803.850301  20882.241691    200.153681
PG13 -16957.925940 -12832.754687 -16068.972231    -42.235851
PG14   2840.628050  15408.948742  21791.262592    -59.316515
PG15 -25056.610155  -3676.845940  -8915.957004   -284.212217
PG16   4747.014973  16922.432262 -19960.969929    -77.656500
PG17   7740.589769 -14074.068713  21552.060959    132.851991
PG18  19072.423155  15129.364853  10233.761545     88.594375
PG19    483.048743 -14603.953743  21881.065031   -262.012682
PG20 -14420.691320  20832.877112  -7758.594268    527.004474
PG21  -8359.483540  13615.475059 -20461.700286   -112.377032
PG22  15800.949210   3644.952047  21247.443407   -758.545613
PG23  26764.294892   -552.766622    861.193525   -164.789829
PG24 -19828.276705  -9375.715179  15052.417664     -2.664678
PG25 -18057.342580  13808.795597  13310.563299    -13.580928
PG26  -1750.228324  23224.382933 -12608.183630     47.809313
PG27  14605.079305  12239.227834 -18742.664737    -68.071781
PG28  12271.382493 -23334.850285   4250.921095    761.041772
PG29 -24610.721869   4790.871286  -8836.424535     87.485791
PG30   4699.342893 -18761.041916 -18086.973836    -48.793008
PG31   4156.131696  23393.564411  11380.334079      7.754483
PG32  -7215.290415  14884.799885  20816.106587     70.539536
PR01 -17716.622210   1122.059186 -18326.639437     50.301516
PR02 -21483.952848  13697.594299    160.679633    389.949320
PR03 -10983.326068  16241.358322  16325.775412      2.142425
PR05  19059.234868  -2855.267977  16728.643318     36.427351
PR07  10645.344360 -16162.392671 -16608.605058    -27.168903
PR08  -5541.588752  -9446.159238 -22989.612775     15.463360
PR09   8271.368236 -15613.565869 -18346.515377     92.623176
PR11  -6778.908802 -21431.912827  12030.296427    -80.655881
PR12 -10800.501784  -6518.451529  22207.682123     64.977022
PR13  -8701.107658  13368.227560  19900.005019    -28.903038
PR14  -1812.865513  24741.681439   5998.306654     43.385296
PR15   6251.422799  22021.783935 -11229.213228    104.144542
PR16  11093.782697   5917.804337 -22189.514007      3.668818
PR17   -165.148180  11635.036257 -22687.701126    263.374072
PR18  15735.890106  15084.596913 -13275.523936      8.802692
PR19  22767.767662  11062.263037   3092.861735    -55.751457
PR20  16472.941933   -791.015032  19476.539395   -391.575514
PR21   -696.725764 -11915.371264  22545.740598    -74.851617
PR22 -17617.148397 -14879.235452  10781.847205   -177.221030
PR23 -22709.673121  -7565.962837  -8838.476596    256.363728
PR24 -14923.319751   2527.910928 -20558.274178   -185.108584
PR26  18641.248855   1037.004235  17371.502668     -2.468777
PR27   3945.817766  24229.979718  -6728.563088    124.509780
EOF
